*******************************************************************************
Ephemeris / WWW_USER Mon Jul 15 19:14:32 2024 Pasadena, USA      / Horizons    
*******************************************************************************
Target body name: (2018 WV1)                      {source: JPL#17}
Center body name: Earth (399)                     {source: DE441}
Center-site name: Gemini South Obs., Cerro Pachon
*******************************************************************************
Start time      : A.D. 2019-Jan-25 23:54:00.0000 UT      
Stop  time      : A.D. 2019-Jan-26 09:56:00.0000 UT      
Step-size       : 1 minutes
*******************************************************************************
Target pole/equ : undefined
Target radii    : undefined                                                    
Center geodetic : 289.2634, -30.2406227, 2.71233  {E-lon(deg),Lat(deg),Alt(km)}
Center cylindric: 289.2634,5517.21435,-3194.81213 {E-lon(deg),Dxy(km),Dz(km)}
Center pole/equ : ITRF93                          {East-longitude positive}
Center radii    : 6378.137, 6378.137, 6356.752 km {Equator_a, b, pole_c}       
Target primary  : Sun
Vis. interferer : MOON (R_eq= 1737.400) km        {source: DE441}
Rel. light bend : Sun                             {source: DE441}
Rel. lght bnd GM: 1.3271E+11 km^3/s^2                                          
Small-body perts: Yes                             {source: SB441-N16}
Atmos refraction: NO (AIRLESS)
RA format       : HMS
Time format     : CAL 
Calendar mode   : Mixed Julian/Gregorian
RTS-only print  : NO       
EOP file        : eop.240715.p241008                                           
EOP coverage    : DATA-BASED 1962-JAN-20 TO 2024-JUL-15. PREDICTS-> 2024-OCT-07
Units conversion: 1 au= 149597870.700 km, c= 299792.458 km/s, 1 day= 86400.0 s 
Table cut-offs 1: Elevation (-90.0deg=NO ),Airmass (>38.000=NO), Daylight (YES)
Table cut-offs 2: Solar elongation (  0.0,180.0=NO ),Local Hour Angle( 0.0=NO )
Table cut-offs 3: RA/DEC angular rate (     0.0=NO )                           
*******************************************************************************
Initial IAU76/J2000 heliocentric ecliptic osculating elements (au, days, deg.):
  EPOCH=  2458458.5 ! 2018-Dec-06.00 (TDB)         Residual RMS= .12928        
   EC= .06869100257422787  QR= .9715505345748198   TP= 2458416.866413563       
   OM= 248.5061090469913   W=  141.3742304527303   IN= 1.905403987972275       
  Equivalent ICRF heliocentric cartesian coordinates (au, au/d):
   X= 2.787163119783287E-01  Y= 8.719775267121872E-01  Z= 3.748421051204766E-01
  VX=-1.676682657337402E-02 VY= 5.516972965834891E-03 VZ= 1.749720915605096E-03
Asteroid physical parameters (km, seconds, rotational period in hours):        
   GM= n.a.                RAD= n.a.               ROTPER= n.a.                
   H= 30.3                 G= .150                 B-V= n.a.                   
                           ALBEDO= n.a.            STYP= n.a.                  
*******************************************************************************
 Date__(UT)__HR:MN     R.A._________(ICRF)_________DEC
******************************************************
$$SOE
 2019-Jan-25 23:54 C   06 08 31.755250 +01 17 36.95886
 2019-Jan-25 23:55 C   06 08 31.768276 +01 17 37.64347
 2019-Jan-25 23:56 C   06 08 31.781211 +01 17 38.32803
 2019-Jan-25 23:57 C   06 08 31.794055 +01 17 39.01256
 2019-Jan-25 23:58 C   06 08 31.806810 +01 17 39.69704
 2019-Jan-25 23:59 C   06 08 31.819476 +01 17 40.38149
 2019-Jan-26 00:00 C   06 08 31.832052 +01 17 41.06589
 2019-Jan-26 00:01 C   06 08 31.844541 +01 17 41.75025
 2019-Jan-26 00:02 C   06 08 31.856941 +01 17 42.43457
 2019-Jan-26 00:03 C   06 08 31.869255 +01 17 43.11885
 2019-Jan-26 00:04 C   06 08 31.881481 +01 17 43.80309
 2019-Jan-26 00:05 C   06 08 31.893622 +01 17 44.48728
 2019-Jan-26 00:06 C   06 08 31.905676 +01 17 45.17144
 2019-Jan-26 00:07 C   06 08 31.917646 +01 17 45.85555
 2019-Jan-26 00:08 C   06 08 31.929531 +01 17 46.53962
 2019-Jan-26 00:09 C   06 08 31.941331 +01 17 47.22364
 2019-Jan-26 00:10 C   06 08 31.953048 +01 17 47.90763
 2019-Jan-26 00:11 C   06 08 31.964682 +01 17 48.59157
 2019-Jan-26 00:12 N   06 08 31.976233 +01 17 49.27547
 2019-Jan-26 00:13 N   06 08 31.987702 +01 17 49.95933
 2019-Jan-26 00:14 N   06 08 31.999089 +01 17 50.64314
 2019-Jan-26 00:15 N   06 08 32.010396 +01 17 51.32691
 2019-Jan-26 00:16 N   06 08 32.021622 +01 17 52.01064
 2019-Jan-26 00:17 N   06 08 32.032768 +01 17 52.69432
 2019-Jan-26 00:18 N   06 08 32.043834 +01 17 53.37796
 2019-Jan-26 00:19 N   06 08 32.054822 +01 17 54.06156
 2019-Jan-26 00:20 N   06 08 32.065731 +01 17 54.74511
 2019-Jan-26 00:21 N   06 08 32.076562 +01 17 55.42862
 2019-Jan-26 00:22 N   06 08 32.087316 +01 17 56.11209
 2019-Jan-26 00:23 N   06 08 32.097994 +01 17 56.79551
 2019-Jan-26 00:24 N   06 08 32.108595 +01 17 57.47889
 2019-Jan-26 00:25 N   06 08 32.119120 +01 17 58.16222
 2019-Jan-26 00:26 N   06 08 32.129571 +01 17 58.84551
 2019-Jan-26 00:27 N   06 08 32.139947 +01 17 59.52875
 2019-Jan-26 00:28 N   06 08 32.150248 +01 18 00.21195
 2019-Jan-26 00:29 N   06 08 32.160477 +01 18 00.89511
 2019-Jan-26 00:30 N   06 08 32.170632 +01 18 01.57822
 2019-Jan-26 00:31 N   06 08 32.180715 +01 18 02.26128
 2019-Jan-26 00:32 N   06 08 32.190726 +01 18 02.94430
 2019-Jan-26 00:33 N   06 08 32.200666 +01 18 03.62728
 2019-Jan-26 00:34 N   06 08 32.210535 +01 18 04.31021
 2019-Jan-26 00:35 N   06 08 32.220334 +01 18 04.99309
 2019-Jan-26 00:36 N   06 08 32.230064 +01 18 05.67593
 2019-Jan-26 00:37 N   06 08 32.239724 +01 18 06.35873
 2019-Jan-26 00:38 N   06 08 32.249316 +01 18 07.04147
 2019-Jan-26 00:39 N   06 08 32.258840 +01 18 07.72418
 2019-Jan-26 00:40 N   06 08 32.268297 +01 18 08.40683
 2019-Jan-26 00:41 N   06 08 32.277687 +01 18 09.08944
 2019-Jan-26 00:42 N   06 08 32.287011 +01 18 09.77201
 2019-Jan-26 00:43 N   06 08 32.296269 +01 18 10.45452
 2019-Jan-26 00:44 A   06 08 32.305462 +01 18 11.13700
 2019-Jan-26 00:45 A   06 08 32.314590 +01 18 11.81942
 2019-Jan-26 00:46 A   06 08 32.323655 +01 18 12.50180
 2019-Jan-26 00:47 A   06 08 32.332656 +01 18 13.18413
 2019-Jan-26 00:48 A   06 08 32.341595 +01 18 13.86642
 2019-Jan-26 00:49 A   06 08 32.350471 +01 18 14.54865
 2019-Jan-26 00:50 A   06 08 32.359285 +01 18 15.23085
 2019-Jan-26 00:51 A   06 08 32.368039 +01 18 15.91299
 2019-Jan-26 00:52 A   06 08 32.376732 +01 18 16.59509
 2019-Jan-26 00:53 A   06 08 32.385365 +01 18 17.27714
 2019-Jan-26 00:54 A   06 08 32.393939 +01 18 17.95914
 2019-Jan-26 00:55 A   06 08 32.402454 +01 18 18.64110
 2019-Jan-26 00:56 A   06 08 32.410911 +01 18 19.32300
 2019-Jan-26 00:57 A   06 08 32.419311 +01 18 20.00486
 2019-Jan-26 00:58 A   06 08 32.427653 +01 18 20.68668
 2019-Jan-26 00:59 A   06 08 32.435940 +01 18 21.36844
 2019-Jan-26 01:00 A   06 08 32.444170 +01 18 22.05016
 2019-Jan-26 01:01 A   06 08 32.452345 +01 18 22.73183
 2019-Jan-26 01:02 A   06 08 32.460466 +01 18 23.41345
 2019-Jan-26 01:03 A   06 08 32.468532 +01 18 24.09502
 2019-Jan-26 01:04 A   06 08 32.476545 +01 18 24.77655
 2019-Jan-26 01:05 A   06 08 32.484505 +01 18 25.45802
 2019-Jan-26 01:06 A   06 08 32.492413 +01 18 26.13945
 2019-Jan-26 01:07 A   06 08 32.500270 +01 18 26.82083
 2019-Jan-26 01:08 A   06 08 32.508075 +01 18 27.50216
 2019-Jan-26 01:09 A   06 08 32.515830 +01 18 28.18345
 2019-Jan-26 01:10 A   06 08 32.523535 +01 18 28.86468
 2019-Jan-26 01:11 A   06 08 32.531190 +01 18 29.54587
 2019-Jan-26 01:12 A   06 08 32.538797 +01 18 30.22700
 2019-Jan-26 01:13 A   06 08 32.546356 +01 18 30.90809
 2019-Jan-26 01:14 A   06 08 32.553868 +01 18 31.58913
 2019-Jan-26 01:15 A   06 08 32.561332 +01 18 32.27012
 2019-Jan-26 01:16 A   06 08 32.568751 +01 18 32.95106
 2019-Jan-26 01:17     06 08 32.576124 +01 18 33.63195
 2019-Jan-26 01:18     06 08 32.583451 +01 18 34.31279
 2019-Jan-26 01:19     06 08 32.590735 +01 18 34.99358
 2019-Jan-26 01:20     06 08 32.597974 +01 18 35.67433
 2019-Jan-26 01:21     06 08 32.605170 +01 18 36.35502
 2019-Jan-26 01:22     06 08 32.612324 +01 18 37.03567
 2019-Jan-26 01:23     06 08 32.619436 +01 18 37.71626
 2019-Jan-26 01:24     06 08 32.626506 +01 18 38.39681
 2019-Jan-26 01:25     06 08 32.633535 +01 18 39.07730
 2019-Jan-26 01:26     06 08 32.640525 +01 18 39.75775
 2019-Jan-26 01:27     06 08 32.647475 +01 18 40.43814
 2019-Jan-26 01:28     06 08 32.654386 +01 18 41.11849
 2019-Jan-26 01:29     06 08 32.661258 +01 18 41.79878
 2019-Jan-26 01:30     06 08 32.668093 +01 18 42.47903
 2019-Jan-26 01:31     06 08 32.674891 +01 18 43.15922
 2019-Jan-26 01:32     06 08 32.681652 +01 18 43.83937
 2019-Jan-26 01:33     06 08 32.688377 +01 18 44.51946
 2019-Jan-26 01:34     06 08 32.695068 +01 18 45.19951
 2019-Jan-26 01:35     06 08 32.701723 +01 18 45.87950
 2019-Jan-26 01:36     06 08 32.708345 +01 18 46.55944
 2019-Jan-26 01:37     06 08 32.714933 +01 18 47.23934
 2019-Jan-26 01:38     06 08 32.721488 +01 18 47.91918
 2019-Jan-26 01:39     06 08 32.728012 +01 18 48.59897
 2019-Jan-26 01:40     06 08 32.734504 +01 18 49.27871
 2019-Jan-26 01:41     06 08 32.740965 +01 18 49.95840
 2019-Jan-26 01:42     06 08 32.747395 +01 18 50.63804
 2019-Jan-26 01:43     06 08 32.753796 +01 18 51.31763
 2019-Jan-26 01:44     06 08 32.760168 +01 18 51.99717
 2019-Jan-26 01:45     06 08 32.766512 +01 18 52.67666
 2019-Jan-26 01:46     06 08 32.772828 +01 18 53.35610
 2019-Jan-26 01:47     06 08 32.779116 +01 18 54.03548
 2019-Jan-26 01:48     06 08 32.785379 +01 18 54.71482
 2019-Jan-26 01:49     06 08 32.791615 +01 18 55.39410
 2019-Jan-26 01:50     06 08 32.797826 +01 18 56.07333
 2019-Jan-26 01:51     06 08 32.804012 +01 18 56.75251
 2019-Jan-26 01:52     06 08 32.810175 +01 18 57.43164
 2019-Jan-26 01:53     06 08 32.816314 +01 18 58.11072
 2019-Jan-26 01:54     06 08 32.822430 +01 18 58.78975
 2019-Jan-26 01:55     06 08 32.828524 +01 18 59.46873
 2019-Jan-26 01:56     06 08 32.834597 +01 19 00.14765
